NORAD_CAT_ID,OBJECT_NAME,OBJECT_TYPE,EPOCH,MEAN_MOTION,ECCENTRICITY,INCLINATION,RA_OF_ASC_NODE,ARG_OF_PERICENTER,MEAN_ANOMALY,BSTAR,MEAN_MOTION_DOT,MEAN_MOTION_DDOT,TLE_LINE0,TLE_LINE1,TLE_LINE2,SEMIMAJOR_AXIS,PERIOD,APOGEE,PERIGEE,DECAYED
54081.0,STARLINK-5165,PAYLOAD,2023-02-04 07:22:24,15.08841969,0.0001265,53.2186,4.2499,91.5709,268.5428,7.982e-05,9.83e-06,0.0,0 STARLINK-5165,1 54081U 22136AG  23035.30722289  .00000983  00000-0  79820-4 0  9998,2 54081  53.2186   4.2499 0001265  91.5709 268.5428 15.08841969 16966,6917.874,95.437,540.614,538.864,0.0
54081.0,STARLINK-5165,PAYLOAD,2023-02-05 07:13:11,15.08839795,0.0001544,53.2195,359.7878,109.1235,250.9924,0.00011722,1.578e-05,0.0,0 STARLINK-5165,1 54081U 22136AG  23036.30082284  .00001578  00000-0  11722-3 0  9990,2 54081  53.2195 359.7878 0001544 109.1235 250.9924 15.08839795 16639,6917.881,95.438,540.814,538.678,0.0
54081.0,STARLINK-5165,PAYLOAD,2023-02-06 03:53:11,15.08842893,0.0001198,53.2184,355.9242,92.7129,267.4,8.8342e-05,1.118e-05,0.0,0 STARLINK-5165,1 54081U 22136AG  23037.16194302  .00001118  00000-0  88342-4 0  9993,2 54081  53.2184 355.9242 0001198  92.7129 267.4000 15.08842893 17243,6917.872,95.437,540.565,538.908,0.0
54081.0,STARLINK-5165,PAYLOAD,2023-02-06 07:03:58,15.08844878,0.0001228,53.2185,355.3296,92.9098,267.2034,0.00010402,1.368e-05,0.0,0 STARLINK-5165,1 54081U 22136AG  23037.29442201  .00001368  00000-0  10402-3 0  9999,2 54081  53.2185 355.3296 0001228  92.9098 267.2034 15.08844878 16786,6917.865,95.437,540.58,538.881,0.0
54081.0,STARLINK-5165,PAYLOAD,2023-02-07 05:19:21,15.088577,0.0001217,53.2187,351.1685,83.2652,276.8479,0.00023224,3.412e-05,0.0,0 STARLINK-5165,1 54081U 22136AG  23038.22177525  .00003412  00000-0  23224-3 0  9995,2 54081  53.2187 351.1685 0001217  83.2652 276.8479 15.08857700 17408,6917.826,95.436,540.533,538.849,0.0
54081.0,STARLINK-5165,PAYLOAD,2023-02-08 06:45:31,15.08860931,0.0001101,53.2184,346.4105,99.5003,260.6113,0.00026076,3.867e-05,0.0,0 STARLINK-5165,1 54081U 22136AG  23039.28161155  .00003867  00000-0  26076-3 0  9996,2 54081  53.2184 346.4105 0001101  99.5003 260.6113 15.08860931 17564,6917.816,95.436,540.443,538.92,0.0
54081.0,STARLINK-5165,PAYLOAD,2023-02-09 05:00:56,15.08836687,0.0001401,53.2191,342.2489,76.5216,283.5932,-0.00012392,-2.259e-05,0.0,0 STARLINK-5165,1 54081U 22136AG  23040.20898642 -.00002259  00000-0 -12392-3 0  9990,2 54081  53.2191 342.2489 0001401  76.5216 283.5932 15.08836687 17705,6917.891,95.438,540.725,538.786,0.0
54081.0,STARLINK-5165,PAYLOAD,2023-02-10 01:40:57,15.08839691,0.000138,53.2182,338.3825,82.7943,277.3206,0.00028179,4.2e-05,0.0,0 STARLINK-5165,1 54081U 22136AG  23041.07011148  .00004200  00000-0  28179-3 0  9990,2 54081  53.2182 338.3825 0001380  82.7943 277.3206 15.08839691 17351,6917.881,95.438,540.701,538.792,0.0
54081.0,STARLINK-5165,PAYLOAD,2023-02-10 04:51:43,15.08856518,0.0001032,53.2179,337.7876,80.8978,279.2131,0.00048049,7.371e-05,0.0,0 STARLINK-5165,1 54081U 22136AG  23041.20258200  .00007371  00000-0  48049-3 0  9997,2 54081  53.2179 337.7876 0001032  80.8978 279.2131 15.08856518 17857,6917.83,95.437,540.409,538.981,0.0
54081.0,STARLINK-5165,PAYLOAD,2023-02-11 01:31:44,15.08843094,8.8e-05,53.2167,333.9211,82.552,277.5572,0.00017551,2.507e-05,0.0,0 STARLINK-5165,1 54081U 22136AG  23042.06370847  .00002507  00000-0  17551-3 0  9994,2 54081  53.2167 333.9211 0000880  82.5520 277.5572 15.08843094 17986,6917.871,95.437,540.345,539.127,0.0
54081.0,STARLINK-5165,PAYLOAD,2023-02-11 03:07:07,15.08860732,0.0001166,53.2179,333.6246,82.5993,277.5132,0.00053104,8.178e-05,0.0,0 STARLINK-5165,1 54081U 22136AG  23042.12994433  .00008178  00000-0  53104-3 0  9998,2 54081  53.2179 333.6246 0001166  82.5993 277.5132 15.08860732 17997,6917.817,95.436,540.489,538.875,0.0
54081.0,STARLINK-5165,PAYLOAD,2023-02-11 19:00:58,15.08846495,0.0001139,53.2181,330.6507,90.5608,269.5514,-3.9357e-05,-9.14e-06,0.0,0 STARLINK-5165,1 54081U 22136AG  23042.79234439 -.00000914  00000-0 -39357-4 0  9991,2 54081  53.2181 330.6507 0001139  90.5608 269.5514 15.08846495 18096,6917.861,95.437,540.513,538.938,0.0
54081.0,STARLINK-5165,PAYLOAD,2023-02-12 04:33:16,15.0886677,0.000121,53.2182,328.8665,92.6981,267.415,0.00039715,6.043e-05,0.0,0 STARLINK-5165,1 54081U 22136AG  23043.18977365  .00006043  00000-0  39715-3 0  9991,2 54081  53.2182 328.8665 0001210  92.6981 267.4150 15.08866770 18156,6917.799,95.436,540.501,538.827,0.0
54081.0,STARLINK-5165,PAYLOAD,2023-02-12 18:51:46,15.08827808,0.0001347,53.2171,326.1922,83.1277,276.9868,-0.00034314,-5.743e-05,0.0,0 STARLINK-5165,1 54081U 22136AG  23043.78595353 -.00005743  00000-0 -34314-3 0  9998,2 54081  53.2171 326.1922 0001347  83.1277 276.9868 15.08827808 18245,6917.918,95.438,540.714,538.851,0.0
54081.0,STARLINK-5165,PAYLOAD,2023-02-13 04:24:05,15.08831132,0.0001038,53.2174,324.4068,81.0252,279.0857,-8.8521e-05,-1.696e-05,0.0,0 STARLINK-5165,1 54081U 22136AG  23044.18339523 -.00001696  00000-0 -88521-4 0  9991,2 54081  53.2174 324.4068 0001038  81.0252 279.0857 15.08831132 17827,6917.907,95.438,540.491,539.054,0.0
54081.0,STARLINK-5165,PAYLOAD,2023-02-14 01:04:06,15.0883924,0.000104,53.2161,320.5423,62.9832,297.1266,0.00019466,2.812e-05,0.0,0 STARLINK-5165,1 54081U 22136AG  23045.04451858  .00002812  00000-0  19466-3 0  9993,2 54081  53.2161 320.5423 0001040  62.9832 297.1266 15.08839240 18431,6917.883,95.438,540.467,539.028,0.0
54081.0,STARLINK-5165,PAYLOAD,2023-02-14 18:33:21,15.08836014,0.0001315,53.2163,317.2718,72.0989,288.0147,0.00025153,3.717e-05,0.0,0 STARLINK-5165,1 54081U 22136AG  23045.77316193  .00003717  00000-0  25153-3 0  9990,2 54081  53.2163 317.2718 0001315  72.0989 288.0147 15.08836014 18065,6917.893,95.438,540.667,538.848,0.0
54081.0,STARLINK-5165,PAYLOAD,2023-02-15 02:30:16,15.08854085,9.92e-05,53.2165,315.7817,78.6849,281.4255,0.00048504,7.443e-05,0.0,0 STARLINK-5165,1 54081U 22136AG  23046.10435652  .00007443  00000-0  48504-3 0  9995,2 54081  53.2165 315.7817 0000992  78.6849 281.4255 15.08854085 18590,6917.837,95.437,540.389,539.016,0.0
54081.0,STARLINK-5165,PAYLOAD,2023-02-15 10:27:12,15.08848396,0.0001327,53.218,314.2954,77.1434,282.9706,0.00022205,3.249e-05,0.0,0 STARLINK-5165,1 54081U 22136AG  23046.43555594  .00003249  00000-0  22205-3 0  9999,2 54081  53.2180 314.2954 0001327  77.1434 282.9706 15.08848396 18168,6917.855,95.437,540.638,538.802,0.0
54081.0,STARLINK-5165,PAYLOAD,2023-02-15 21:34:53,15.08854163,0.0001393,53.2178,312.2136,84.4546,275.6605,0.00014877,2.081e-05,0.0,0 STARLINK-5165,1 54081U 22136AG  23046.89923203  .00002081  00000-0  14877-3 0  9994,2 54081  53.2178 312.2136 0001393  84.4546 275.6605 15.08854163 18237,6917.837,95.437,540.666,538.738,0.0
54081.0,STARLINK-5165,PAYLOAD,2023-02-15 23:10:16,15.08855651,0.0001289,53.2175,311.9165,69.4219,290.6911,0.00020205,2.931e-05,0.0,0 STARLINK-5165,1 54081U 22136AG  23046.96547091  .00002931  00000-0  20205-3 0  9995,2 54081  53.2175 311.9165 0001289  69.4219 290.6911 15.08855651 18720,6917.833,95.437,540.589,538.806,0.0
54081.0,STARLINK-5165,PAYLOAD,2023-02-16 10:17:58,15.08847054,0.0001357,53.217,309.837,78.0513,282.0631,8.2001e-05,1.018e-05,0.0,0 STARLINK-5165,1 54081U 22136AG  23047.42915289  .00001018  00000-0  82001-4 0  9993,2 54081  53.2170 309.8370 0001357  78.0513 282.0631 15.08847054 18315,6917.859,95.437,540.663,538.785,0.0
54081.0,STARLINK-5165,PAYLOAD,2023-02-16 16:39:32,15.08824044,0.0001133,53.2163,308.6445,79.2461,280.8659,-0.00043709,-7.234e-05,0.0,0 STARLINK-5165,1 54081U 22136AG  23047.69412175 -.00007234  00000-0 -43709-3 0  9997,2 54081  53.2163 308.6445 0001133  79.2461 280.8659 15.08824044 18831,6917.929,95.439,540.578,539.01,0.0
54081.0,STARLINK-5165,PAYLOAD,2023-02-16 21:25:41,15.08837987,0.0001241,53.2163,307.7522,97.4716,262.6418,-0.00011611,-2.135e-05,0.0,0 STARLINK-5165,1 54081U 22136AG  23047.89283760 -.00002135  00000-0 -11611-3 0  9997,2 54081  53.2163 307.7522 0001241  97.4716 262.6418 15.08837987 18383,6917.887,95.438,540.61,538.893,0.0
54081.0,STARLINK-5165,PAYLOAD,2023-02-16 23:01:04,15.08835481,0.0001353,53.2167,307.4563,111.1327,248.981,-0.00016847,-2.968e-05,0.0,0 STARLINK-5165,1 54081U 22136AG  23047.95907656 -.00002968  00000-0 -16847-3 0  9991,2 54081  53.2167 307.4563 0001353 111.1327 248.9810 15.08835481 18879,6917.894,95.438,540.695,538.823,0.0
54081.0,STARLINK-5165,PAYLOAD,2023-02-17 03:47:13,15.08843486,0.0001193,53.2171,306.5629,96.3177,263.7951,5.9766e-05,6.64e-06,0.0,0 STARLINK-5165,1 54081U 22136AG  23048.15779534  .00000664  00000-0  59766-4 0  9993,2 54081  53.2171 306.5629 0001193  96.3177 263.7951 15.08843486 18422,6917.87,95.437,540.56,538.909,0.0
54081.0,STARLINK-5165,PAYLOAD,2023-02-17 16:30:19,15.08823657,0.0001641,53.2167,304.1876,87.3318,272.7862,-9.3323e-05,-1.772e-05,0.0,0 STARLINK-5165,1 54081U 22136AG  23048.68773045 -.00001772  00000-0 -93323-4 0  9992,2 54081  53.2167 304.1876 0001641  87.3318 272.7862 15.08823657 18980,6917.93,95.439,540.931,538.66,0.0
54081.0,STARLINK-5165,PAYLOAD,2023-02-17 21:16:29,15.08822826,0.0001538,53.2168,303.2953,82.9544,277.1623,-0.00012401,-2.26e-05,0.0,0 STARLINK-5165,1 54081U 22136AG  23048.88645296 -.00002260  00000-0 -12401-3 0  9990,2 54081  53.2168 303.2953 0001538  82.9544 277.1623 15.08822826 18536,6917.933,95.439,540.862,538.734,0.0
54081.0,STARLINK-5165,PAYLOAD,2023-02-18 09:59:34,15.08837605,0.0001311,53.216,300.9147,87.6176,272.4966,0.0002771,4.125e-05,0.0,0 STARLINK-5165,1 54081U 22136AG  23049.41637177  .00004125  00000-0  27710-3 0  9998,2 54081  53.2160 300.9147 0001311  87.6176 272.4966 15.08837605 19090,6917.888,95.438,540.66,538.846,0.0
54081.0,STARLINK-5165,PAYLOAD,2023-02-18 22:42:39,15.08859019,0.0001209,53.216,298.5366,87.8033,272.3097,0.00076393,0.00011897,0.0,0 STARLINK-5165,1 54081U 22136AG  23049.94628639  .00011897  00000-0  76393-3 0  9994,2 54081  53.2160 298.5366 0001209  87.8033 272.3097 15.08859019 19171,6917.822,95.436,540.524,538.851,0.0
